      2.10          N: GNSS NAV DATA                        RINEX VERSION / TYPE
fic2rin                                 04/23/2022 00:17:42 PGM / RUN BY / DATE
                                                            END OF HEADER
10 22  4 22 14  0  0.0 -.388029031456D-03 -.131876731757D-10  .000000000000D+00
     .930000000000D+02 -.894062500000D+02  .399302346831D-08  .236267114452D+01
    -.462494790554D-05  .758461502846D-02  .821985304356D-05  .515368345642D+04
     .482400000000D+06 -.931322574615D-07 -.200830684216D+01 -.113621354103D-06
     .973035488731D+00  .226812500000D+03 -.249340554428D+01 -.774353683511D-08
     .196079596074D-09  .100000000000D+01  .220600000000D+04  .000000000000D+00
     .240000000000D+01  .000000000000D+00  .232830643654D-08  .930000000000D+02
     .475200000000D+06  .400000000000D+01
9  22  4 22 14  0  0.0 -.342014245689D-03  .261479726760D-11  .000000000000D+00
     .570000000000D+02 -.277500000000D+02  .469698136241D-08  .787499554517D+00
    -.138767063618D-05  .209170323797D-02  .848248600960D-05  .515357735825D+04
     .482400000000D+06 -.242143869400D-07 -.977308532000D+00  .186264514923D-07
     .954088467191D+00  .208968750000D+03  .188279569631D+01 -.800997650482D-08
     .506449667090D-09  .100000000000D+01  .220600000000D+04  .000000000000D+00
     .240000000000D+01  .000000000000D+00  .139698386192D-08  .570000000000D+02
     .475200000000D+06  .400000000000D+01
7  22  4 22 14  0  0.0  .320868100971D-03  .909494701773D-12  .000000000000D+00
     .850000000000D+02  .940625000000D+01  .500949437983D-08 -.255158202489D+01
     .167638063431D-06  .159249163698D-01  .758469104767D-05  .515366475868D+04
     .482400000000D+06  .255182385445D-06  .943419045761D-01 -.195577740669D-06
     .951226323560D+00  .226593750000D+03 -.227625874747D+01 -.790032908042D-08
     .153577825704D-10  .100000000000D+01  .220600000000D+04  .000000000000D+00
     .240000000000D+01  .000000000000D+00 -.111758708954D-07  .850000000000D+02
     .475200000000D+06  .400000000000D+01
6  22  4 22 14  0  0.0  .276013743132D-03  .138697942020D-10  .000000000000D+00
     .840000000000D+02 -.361562500000D+02  .394587864740D-08 -.163253460624D+01
    -.187195837498D-05  .261927105021D-02  .306218862534D-05  .515371219444D+04
     .482400000000D+06 -.447034835815D-07 -.304783996853D+01  .912696123123D-07
     .987129143491D+00  .336625000000D+03 -.874124327770D+00 -.809462288782D-08
    -.517878714584D-10  .100000000000D+01  .220600000000D+04  .000000000000D+00
     .240000000000D+01  .000000000000D+00  .372529029846D-08  .840000000000D+02
     .475200000000D+06  .400000000000D+01
11 22  4 22 14  0  0.0 -.357087701559D-04  .636646291241D-11  .000000000000D+00
     .133000000000D+03 -.428125000000D+02  .447554356721D-08  .206956292332D+00
    -.237673521042D-05  .307998037897D-03  .301003456116D-05  .515356676102D+04
     .482400000000D+06  .707805156708D-07 -.299737163546D+01  .800937414169D-07
     .962925067317D+00  .325093750000D+03  .287522693329D+01 -.831034615927D-08
    -.121790787361D-09  .100000000000D+01  .220600000000D+04  .000000000000D+00
     .240000000000D+01  .630000000000D+02 -.884756445885D-08  .901000000000D+03
     .475200000000D+06  .400000000000D+01
31 22  4 22 14  0  0.0 -.174521002918D-03 -.159161572810D-11  .000000000000D+00
     .130000000000D+02  .108750000000D+02  .494342019901D-08 -.301347724292D+01
     .504776835442D-06  .104352957569D-01  .765547156334D-05  .515371754074D+04
     .482400000000D+06 -.195577740669D-06  .112686415990D+00 -.132247805595D-06
     .955435530936D+00  .231218750000D+03  .387746555406D+00 -.790890086604D-08
    -.157506560780D-09  .100000000000D+01  .220600000000D+04  .000000000000D+00
     .240000000000D+01  .000000000000D+00 -.135041773319D-07  .130000000000D+02
     .475200000000D+06  .400000000000D+01
30 22  4 22 14  0  0.0 -.524895731360D-03 -.159161572810D-11  .000000000000D+00
     .120000000000D+02  .112500000000D+02  .540343936065D-08 -.253202267266D+01
     .394880771637D-06  .572177779395D-02  .777654349804D-05  .515377386093D+04
     .482400000000D+06  .931322574615D-08  .106478144225D+00 -.134110450745D-06
     .936378595973D+00  .220687500000D+03 -.271406465964D+01 -.822427114533D-08
    -.675028117631D-10  .100000000000D+01  .220600000000D+04  .000000000000D+00
     .240000000000D+01  .000000000000D+00  .372529029846D-08  .120000000000D+02
     .475200000000D+06  .400000000000D+01
25 22  4 22 14  0  0.0  .315298791975D-03  .500222085975D-11  .000000000000D+00
     .150000000000D+02  .585000000000D+02  .456340436982D-08  .281558031510D+01
     .287592411041D-05  .105454080040D-01  .877119600773D-05  .515368458176D+04
     .482400000000D+06 -.242143869400D-07  .112964662424D+01 -.143423676491D-06
     .957036999061D+00  .204406250000D+03  .998986847926D+00 -.781175396234D-08
    -.356443418728D-09  .100000000000D+01  .220600000000D+04  .000000000000D+00
     .240000000000D+01  .000000000000D+00  .558793544769D-08  .150000000000D+02
     .475200000000D+06  .400000000000D+01
14 22  4 22 14  0  0.0 -.104220118374D-03 -.250111042988D-11  .000000000000D+00
     .340000000000D+02  .751250000000D+02  .470448167483D-08  .312646513414D+01
     .389851629734D-05  .173464452382D-02  .922568142414D-05  .515365813446D+04
     .482400000000D+06 -.670552253723D-07  .117484677132D+01 -.540167093277D-07
     .952945288876D+00  .198468750000D+03  .306692089535D+01 -.796426031484D-08
    -.365729519817D-09  .100000000000D+01  .220600000000D+04  .000000000000D+00
     .240000000000D+01  .000000000000D+00 -.745058059692D-08  .340000000000D+02
     .475200000000D+06  .400000000000D+01
15 22  4 22 14  0  0.0 -.669620931149D-04  .295585778076D-11  .000000000000D+00
     .230000000000D+02 -.265000000000D+02  .527164815673D-08 -.643223205903D+00
    -.111386179924D-05  .139829898253D-01  .852532684803D-05  .515377208138D+04
     .482400000000D+06 -.186264514923D-07 -.108512404375D+01  .195577740669D-06
     .929940057976D+00  .201687500000D+03  .108701131194D+01 -.849428239239D-08
     .427160650099D-09  .100000000000D+01  .220600000000D+04  .000000000000D+00
     .240000000000D+01  .000000000000D+00 -.107102096081D-07  .230000000000D+02
     .475200000000D+06  .400000000000D+01
29 22  4 22 14  0  0.0 -.505842268467D-03 -.409272615798D-11  .000000000000D+00
     .800000000000D+02  .666562500000D+02  .397052253106D-08  .468569233172D+00
     .331550836563D-05  .207068840973D-02  .517442822456D-05  .515372356606D+04
     .482400000000D+06 -.242143869400D-07  .225862832148D+01 -.279396772385D-07
     .981083562846D+00  .290843750000D+03  .223577839543D+01 -.795283126734D-08
    -.118219210019D-09  .100000000000D+01  .220600000000D+04  .000000000000D+00
     .340000000000D+01  .000000000000D+00 -.102445483208D-07  .800000000000D+02
     .475200000000D+06  .400000000000D+01
16 22  4 22 14  0  0.0 -.494150910527D-03 -.363797880709D-11  .000000000000D+00
     .710000000000D+02  .728437500000D+02  .442982737723D-08  .125207567818D+01
     .406242907047D-05  .127688143402D-01  .892579555511D-05  .515363890839D+04
     .482400000000D+06 -.968575477600D-07  .122578334789D+01  .180676579475D-06
     .969420626935D+00  .216062500000D+03  .725004665549D+00 -.800604776974D-08
    -.422517599554D-09  .100000000000D+01  .220600000000D+04  .000000000000D+00
     .240000000000D+01  .000000000000D+00 -.102445483208D-07  .710000000000D+02
     .475200000000D+06  .400000000000D+01
32 22  4 22 14  0  0.0 -.110895372927D-03 -.818545231596D-11  .000000000000D+00
     .420000000000D+02 -.140625000000D+02  .467983779117D-08  .977901993978D+00
    -.877305865288D-06  .591375585645D-02  .872835516930D-05  .515358703232D+04
     .482400000000D+06 -.119209289551D-06 -.965816072859D+00  .204890966415D-07
     .957918206784D+00  .208000000000D+03 -.229720780459D+01 -.803712049261D-08
     .363943731146D-09  .100000000000D+01  .220600000000D+04  .000000000000D+00
     .240000000000D+01  .000000000000D+00  .465661287308D-09  .420000000000D+02
     .475200000000D+06  .400000000000D+01
24 22  4 22 14  0  0.0  .252941157669D-03 -.557065504836D-11  .000000000000D+00
     .680000000000D+02  .135937500000D+02  .546272754453D-08 -.158067943415D+01
     .663101673126D-06  .124341087649D-01  .683590769768D-05  .515368290138D+04
     .482400000000D+06  .234693288803D-06  .105237689172D-01 -.372529029846D-07
     .934696017818D+00  .229812500000D+03  .813976371943D+00 -.826177270742D-08
     .810748056625D-10  .100000000000D+01  .220600000000D+04  .000000000000D+00
     .240000000000D+01  .000000000000D+00  .232830643654D-08  .680000000000D+02
     .475200000000D+06  .400000000000D+01
21 22  4 22 14  0  0.0  .160644296557D-03  .341060513165D-12  .000000000000D+00
     .750000000000D+02 -.405937500000D+02  .471483924912D-08  .479974103019D+00
    -.259093940258D-05  .243541395757D-01  .309571623802D-05  .515376339340D+04
     .482400000000D+06 -.372529029846D-07 -.313222546039D+01 -.400468707085D-06
     .960230859367D+00  .325156250000D+03 -.962058917410D+00 -.878929468083D-08
    -.182864759908D-09  .100000000000D+01  .220600000000D+04  .000000000000D+00
     .340000000000D+01  .000000000000D+00 -.102445483208D-07  .750000000000D+02
     .475200000000D+06  .400000000000D+01
19 22  4 22 14  0  0.0  .147727783769D-03  .500222085975D-11  .000000000000D+00
     .700000000000D+02  .897187500000D+02  .408088427092D-08  .267594289288D+01
     .471808016300D-05  .916178955231D-02  .492669641972D-05  .515370334053D+04
     .482400000000D+06  .182539224625D-06  .229029834156D+01  .447034835815D-07
     .977858333187D+00  .291250000000D+03  .204070612982D+01 -.795997442203D-08
    -.106075847056D-09  .100000000000D+01  .220600000000D+04  .000000000000D+00
     .240000000000D+01  .000000000000D+00 -.158324837685D-07  .700000000000D+02
     .475200000000D+06  .400000000000D+01
